start=new Date('2022-11-14T00:00:00.000Z').valueOf();
sats=[{"BSTAR":"-0.00008225300000","TLE_LINE2":"2 46353  53.0560  57.6804 0001372  79.2232 280.8912 15.06394197121627","TIME_SYSTEM":"UTC","NORAD_CAT_ID":"46353","MEAN_ELEMENT_THEORY":"SGP4","DECAY_DATE":null,"OBJECT_ID":"2020-062AE","MEAN_MOTION":"15.06394197","SITE":"AFETR","CLASSIFICATION_TYPE":"U","LAUNCH_DATE":"2020-09-03","SEMIMAJOR_AXIS":"6925.366","INCLINATION":"53.0560","ECCENTRICITY":"0.00013720","EPHEMERIS_TYPE":"0","PERIOD":"95.593","PERIAPSIS":"546.281","MEAN_MOTION_DDOT":"0.0000000000000","MEAN_MOTION_DOT":"-0.00001506","ARG_OF_PERICENTER":"79.2232","REV_AT_EPOCH":"12162","RA_OF_ASC_NODE":"57.6804","GP_ID":"217690558","TLE_LINE1":"1 46353U 20062AE  22317.65108364 -.00001506  00000-0 -82253-4 0  9997","ELEMENT_SET_NO":"999","APOAPSIS":"548.182","CENTER_NAME":"EARTH","FILE":"3653957","REF_FRAME":"TEME","COUNTRY_CODE":"US","OBJECT_TYPE":"PAYLOAD","MEAN_ANOMALY":"280.8912","RCS_SIZE":"LARGE","OBJECT_NAME":"STARLINK-1656","EPOCH":"2022-11-13T15:37:33.626496"},{"EPHEMERIS_TYPE":"0","ECCENTRICITY":"0.00013990","INCLINATION":"53.0560","SEMIMAJOR_AXIS":"6925.370","LAUNCH_DATE":"2020-09-03","MEAN_MOTION_DOT":"-0.00002483","PERIAPSIS":"546.266","MEAN_MOTION_DDOT":"0.0000000000000","PERIOD":"95.593","DECAY_DATE":null,"NORAD_CAT_ID":"46354","TIME_SYSTEM":"UTC","MEAN_ELEMENT_THEORY":"SGP4","BSTAR":"-0.00014791000000","TLE_LINE2":"2 46354  53.0560  57.7188 0001399  80.0391 280.0756 15.06392998121624","CLASSIFICATION_TYPE":"U","MEAN_MOTION":"15.06392998","SITE":"AFETR","OBJECT_ID":"2020-062AF","COUNTRY_CODE":"US","FILE":"3653957","REF_FRAME":"TEME","OBJECT_NAME":"STARLINK-1657","EPOCH":"2022-11-13T15:21:38.001024","MEAN_ANOMALY":"280.0756","OBJECT_TYPE":"PAYLOAD","RCS_SIZE":"LARGE","RA_OF_ASC_NODE":"57.7188","GP_ID":"217689306","TLE_LINE1":"1 46354U 20062AF  22317.64002316 -.00002483  00000-0 -14791-3 0  9993","REV_AT_EPOCH":"12162","ARG_OF_PERICENTER":"80.0391","APOAPSIS":"548.204","CENTER_NAME":"EARTH","ELEMENT_SET_NO":"999"},{"CLASSIFICATION_TYPE":"U","SITE":"AFETR","MEAN_MOTION":"15.06400835","OBJECT_ID":"2020-062AG","DECAY_DATE":null,"MEAN_ELEMENT_THEORY":"SGP4","NORAD_CAT_ID":"46355","TIME_SYSTEM":"UTC","TLE_LINE2":"2 46355  53.0542  58.1435 0001532  96.4412 263.6752 15.06400835121611","BSTAR":"-0.00001069900000","MEAN_MOTION_DOT":"-0.00000441","MEAN_MOTION_DDOT":"0.0000000000000","PERIAPSIS":"546.150","PERIOD":"95.592","EPHEMERIS_TYPE":"0","ECCENTRICITY":"0.00015320","INCLINATION":"53.0542","SEMIMAJOR_AXIS":"6925.346","LAUNCH_DATE":"2020-09-03","CENTER_NAME":"EARTH","APOAPSIS":"548.272","ELEMENT_SET_NO":"999","TLE_LINE1":"1 46355U 20062AG  22317.54786807 -.00000441  00000-0 -10699-4 0  9993","GP_ID":"217623233","RA_OF_ASC_NODE":"58.1435","REV_AT_EPOCH":"12161","ARG_OF_PERICENTER":"96.4412","EPOCH":"2022-11-13T13:08:55.801248","OBJECT_NAME":"STARLINK-1661","RCS_SIZE":"LARGE","MEAN_ANOMALY":"263.6752","OBJECT_TYPE":"PAYLOAD","COUNTRY_CODE":"US","REF_FRAME":"TEME","FILE":"3653238"},{"MEAN_ELEMENT_THEORY":"SGP4","NORAD_CAT_ID":"46356","TIME_SYSTEM":"UTC","TLE_LINE2":"2 46356  53.0551  58.0887 0001357  97.3520 262.7623 15.06402697121791","BSTAR":"-0.00000918870000","DECAY_DATE":null,"SITE":"AFETR","MEAN_MOTION":"15.06402697","OBJECT_ID":"2020-062AH","CLASSIFICATION_TYPE":"U","INCLINATION":"53.0551","ECCENTRICITY":"0.00013570","LAUNCH_DATE":"2020-09-03","SEMIMAJOR_AXIS":"6925.340","EPHEMERIS_TYPE":"0","PERIOD":"95.592","MEAN_MOTION_DOT":"-0.00000418","MEAN_MOTION_DDOT":"0.0000000000000","PERIAPSIS":"546.266","ARG_OF_PERICENTER":"97.3520","TLE_LINE1":"1 46356U 20062AH  22317.55798235 -.00000418  00000-0 -91887-5 0  9996","RA_OF_ASC_NODE":"58.0887","GP_ID":"217656390","REV_AT_EPOCH":"12179","ELEMENT_SET_NO":"999","CENTER_NAME":"EARTH","APOAPSIS":"548.145","COUNTRY_CODE":"US","REF_FRAME":"TEME","FILE":"3653328","RCS_SIZE":"LARGE","MEAN_ANOMALY":"262.7623","OBJECT_TYPE":"PAYLOAD","EPOCH":"2022-11-13T13:23:29.675040","OBJECT_NAME":"STARLINK-1665"},{"OBJECT_ID":"2020-062AJ","MEAN_MOTION":"15.06394322","SITE":"AFETR","CLASSIFICATION_TYPE":"U","BSTAR":"-0.00008358600000","TLE_LINE2":"2 46357  53.0537  38.0983 0001108  80.7324 279.3790 15.06394322121898","TIME_SYSTEM":"UTC","NORAD_CAT_ID":"46357","MEAN_ELEMENT_THEORY":"SGP4","DECAY_DATE":null,"PERIOD":"95.593","PERIAPSIS":"546.464","MEAN_MOTION_DDOT":"0.0000000000000","MEAN_MOTION_DOT":"-0.00001526","SEMIMAJOR_AXIS":"6925.366","LAUNCH_DATE":"2020-09-03","ECCENTRICITY":"0.00011080","INCLINATION":"53.0537","EPHEMERIS_TYPE":"0","ELEMENT_SET_NO":"999","APOAPSIS":"547.998","CENTER_NAME":"EARTH","ARG_OF_PERICENTER":"80.7324","REV_AT_EPOCH":"12189","RA_OF_ASC_NODE":"38.0983","GP_ID":"217690059","TLE_LINE1":"1 46357U 20062AJ  22317.55709826 -.00001526  00000-0 -83586-4 0  9992","MEAN_ANOMALY":"279.3790","OBJECT_TYPE":"PAYLOAD","RCS_SIZE":"LARGE","OBJECT_NAME":"STARLINK-1666","EPOCH":"2022-11-13T13:22:13.289664","FILE":"3653957","REF_FRAME":"TEME","COUNTRY_CODE":"US"},{"TLE_LINE1":"1 46358U 20062AK  22317.60316081  .00001001  00000-0  86057-4 0  9998","RA_OF_ASC_NODE":"57.8939","GP_ID":"217688807","REV_AT_EPOCH":"12162","ARG_OF_PERICENTER":"81.5274","CENTER_NAME":"EARTH","APOAPSIS":"548.012","ELEMENT_SET_NO":"999","COUNTRY_CODE":"US","REF_FRAME":"TEME","FILE":"3653957","EPOCH":"2022-11-13T14:28:33.093984","OBJECT_NAME":"STARLINK-1690","RCS_SIZE":"LARGE","OBJECT_TYPE":"PAYLOAD","MEAN_ANOMALY":"278.5846","DECAY_DATE":null,"MEAN_ELEMENT_THEORY":"SGP4","NORAD_CAT_ID":"46358","TIME_SYSTEM":"UTC","TLE_LINE2":"2 46358  53.0557  57.8939 0001153  81.5274 278.5846 15.06399910121626","BSTAR":"0.00008605700000","CLASSIFICATION_TYPE":"U","SITE":"AFETR","MEAN_MOTION":"15.06399910","OBJECT_ID":"2020-062AK","EPHEMERIS_TYPE":"0","INCLINATION":"53.0557","ECCENTRICITY":"0.00011530","LAUNCH_DATE":"2020-09-03","SEMIMAJOR_AXIS":"6925.349","MEAN_MOTION_DOT":"0.00001001","MEAN_MOTION_DDOT":"0.0000000000000","PERIAPSIS":"546.415","PERIOD":"95.592"},{"SITE":"AFETR","MEAN_MOTION":"15.06392214","OBJECT_ID":"2020-062AL","CLASSIFICATION_TYPE":"U","MEAN_ELEMENT_THEORY":"SGP4","NORAD_CAT_ID":"46359","TIME_SYSTEM":"UTC","TLE_LINE2":"2 46359  53.0544  13.2837 0001683  62.0949 298.0210 15.06392214122237","BSTAR":"0.00006802300000","DECAY_DATE":null,"PERIOD":"95.593","MEAN_MOTION_DOT":"0.00000732","MEAN_MOTION_DDOT":"0.0000000000000","PERIAPSIS":"546.072","ECCENTRICITY":"0.00016830","INCLINATION":"53.0544","LAUNCH_DATE":"2020-09-03","SEMIMAJOR_AXIS":"6925.372","EPHEMERIS_TYPE":"0","ELEMENT_SET_NO":"999","CENTER_NAME":"EARTH","APOAPSIS":"548.403","ARG_OF_PERICENTER":"62.0949","TLE_LINE1":"1 46359U 20062AL  22317.51701017  .00000732  00000-0  68023-4 0  9999","GP_ID":"217689556","RA_OF_ASC_NODE":"13.2837","REV_AT_EPOCH":"12223","RCS_SIZE":"LARGE","OBJECT_TYPE":"PAYLOAD","MEAN_ANOMALY":"298.0210","EPOCH":"2022-11-13T12:24:29.678688","OBJECT_NAME":"STARLINK-1707","COUNTRY_CODE":"US","REF_FRAME":"TEME","FILE":"3653957"},{"ELEMENT_SET_NO":"999","CENTER_NAME":"EARTH","APOAPSIS":"548.461","ARG_OF_PERICENTER":"46.1027","REV_AT_EPOCH":"12226","TLE_LINE1":"1 46360U 20062AM  22317.67182256 -.00001019  00000-0 -49499-4 0  9993","RA_OF_ASC_NODE":"12.5866","GP_ID":"217690307","RCS_SIZE":"LARGE","MEAN_ANOMALY":"314.0109","OBJECT_TYPE":"PAYLOAD","EPOCH":"2022-11-13T16:07:25.469184","OBJECT_NAME":"STARLINK-1713","REF_FRAME":"TEME","FILE":"3653957","COUNTRY_CODE":"US","OBJECT_ID":"2020-062AM","SITE":"AFETR","MEAN_MOTION":"15.06396934","CLASSIFICATION_TYPE":"U","TLE_LINE2":"2 46360  53.0557  12.5866 0001788  46.1027 314.0109 15.06396934122265","BSTAR":"-0.00004949900000","MEAN_ELEMENT_THEORY":"SGP4","TIME_SYSTEM":"UTC","NORAD_CAT_ID":"46360","DECAY_DATE":null,"PERIOD":"95.592","MEAN_MOTION_DDOT":"0.0000000000000","PERIAPSIS":"545.985","MEAN_MOTION_DOT":"-0.00001019","LAUNCH_DATE":"2020-09-03","SEMIMAJOR_AXIS":"6925.358","INCLINATION":"53.0557","ECCENTRICITY":"0.00017880","EPHEMERIS_TYPE":"0"},{"DECAY_DATE":null,"TLE_LINE2":"2 46361  53.0565  12.9949 0001371  59.8312 300.2813 15.06389616122243","BSTAR":"-0.00003190900000","MEAN_ELEMENT_THEORY":"SGP4","NORAD_CAT_ID":"46361","TIME_SYSTEM":"UTC","CLASSIFICATION_TYPE":"U","OBJECT_ID":"2020-062AN","SITE":"AFETR","MEAN_MOTION":"15.06389616","EPHEMERIS_TYPE":"0","SEMIMAJOR_AXIS":"6925.380","LAUNCH_DATE":"2020-09-03","INCLINATION":"53.0565","ECCENTRICITY":"0.00013710","MEAN_MOTION_DDOT":"0.0000000000000","PERIAPSIS":"546.296","MEAN_MOTION_DOT":"-0.00000757","PERIOD":"95.593","REV_AT_EPOCH":"12224","TLE_LINE1":"1 46361U 20062AN  22317.57503241 -.00000757  00000-0 -31909-4 0  9999","RA_OF_ASC_NODE":"12.9949","GP_ID":"217690559","ARG_OF_PERICENTER":"59.8312","CENTER_NAME":"EARTH","APOAPSIS":"548.195","ELEMENT_SET_NO":"999","REF_FRAME":"TEME","FILE":"3653957","COUNTRY_CODE":"US","EPOCH":"2022-11-13T13:48:02.800224","OBJECT_NAME":"STARLINK-1722","RCS_SIZE":"LARGE","MEAN_ANOMALY":"300.2813","OBJECT_TYPE":"PAYLOAD"},{"SEMIMAJOR_AXIS":"6925.381","LAUNCH_DATE":"2020-09-03","INCLINATION":"53.0549","ECCENTRICITY":"0.00014980","EPHEMERIS_TYPE":"0","PERIOD":"95.593","MEAN_MOTION_DDOT":"0.0000000000000","PERIAPSIS":"546.209","MEAN_MOTION_DOT":"-0.00004477","TLE_LINE2":"2 46362  53.0549  13.1200 0001498  56.6297 303.4835 15.06389259122428","BSTAR":"-0.00028191000000","MEAN_ELEMENT_THEORY":"SGP4","TIME_SYSTEM":"UTC","NORAD_CAT_ID":"46362","DECAY_DATE":null,"OBJECT_ID":"2020-062AP","SITE":"AFETR","MEAN_MOTION":"15.06389259","CLASSIFICATION_TYPE":"U","REF_FRAME":"TEME","FILE":"3653346","COUNTRY_CODE":"US","RCS_SIZE":"LARGE","OBJECT_TYPE":"PAYLOAD","MEAN_ANOMALY":"303.4835","EPOCH":"2022-11-13T13:17:32.905248","OBJECT_NAME":"STARLINK-1726","ARG_OF_PERICENTER":"56.6297","REV_AT_EPOCH":"12242","TLE_LINE1":"1 46362U 20062AP  22317.55385307 -.00004477  00000-0 -28191-3 0  9990","GP_ID":"217656677","RA_OF_ASC_NODE":"13.1200","ELEMENT_SET_NO":"999","CENTER_NAME":"EARTH","APOAPSIS":"548.284"}];
